<?xml version="1.0" encoding="UTF-8"?>
<gpx version="1.1" creator="Codex" xmlns="http://www.topografix.com/GPX/1/1" xmlns:xsi="http://www.w3.org/2001/XMLSchema-instance" xsi:schemaLocation="http://www.topografix.com/GPX/1/1 http://www.topografix.com/GPX/1/1/gpx.xsd">
  <metadata>
    <name>Dabrowskiego geofences emulator walk</name>
    <desc>Wersja pod Android Emulator: plynny spokojny chod (~4.5 km/h), punkty co 5 s.</desc>
    <time>2020-01-01T00:00:00Z</time>
  </metadata>
  <trk>
    <name>Dabrowskiego geofences (emulator walk)</name>
    <trkseg>
      <trkpt lat="52.410668" lon="16.912540"><ele>0</ele><time>2020-01-01T00:00:00Z</time></trkpt>
      <trkpt lat="52.410691" lon="16.912456"><ele>0</ele><time>2020-01-01T00:00:05Z</time></trkpt>
      <trkpt lat="52.410714" lon="16.912372"><ele>0</ele><time>2020-01-01T00:00:10Z</time></trkpt>
      <trkpt lat="52.410737" lon="16.912288"><ele>0</ele><time>2020-01-01T00:00:15Z</time></trkpt>
      <trkpt lat="52.410760" lon="16.912203"><ele>0</ele><time>2020-01-01T00:00:20Z</time></trkpt>
      <trkpt lat="52.410783" lon="16.912119"><ele>0</ele><time>2020-01-01T00:00:25Z</time></trkpt>
      <trkpt lat="52.410806" lon="16.912035"><ele>0</ele><time>2020-01-01T00:00:30Z</time></trkpt>
      <trkpt lat="52.410828" lon="16.911951"><ele>0</ele><time>2020-01-01T00:00:35Z</time></trkpt>
      <trkpt lat="52.410851" lon="16.911867"><ele>0</ele><time>2020-01-01T00:00:40Z</time></trkpt>
      <trkpt lat="52.410874" lon="16.911783"><ele>0</ele><time>2020-01-01T00:00:45Z</time></trkpt>
      <trkpt lat="52.410897" lon="16.911699"><ele>0</ele><time>2020-01-01T00:00:50Z</time></trkpt>
      <trkpt lat="52.410920" lon="16.911615"><ele>0</ele><time>2020-01-01T00:00:55Z</time></trkpt>
      <trkpt lat="52.410943" lon="16.911530"><ele>0</ele><time>2020-01-01T00:01:00Z</time></trkpt>
      <trkpt lat="52.410966" lon="16.911446"><ele>0</ele><time>2020-01-01T00:01:05Z</time></trkpt>
      <trkpt lat="52.410989" lon="16.911362"><ele>0</ele><time>2020-01-01T00:01:10Z</time></trkpt>
      <trkpt lat="52.411012" lon="16.911278"><ele>0</ele><time>2020-01-01T00:01:15Z</time></trkpt>
      <trkpt lat="52.411035" lon="16.911194"><ele>0</ele><time>2020-01-01T00:01:20Z</time></trkpt>
      <trkpt lat="52.411058" lon="16.911110"><ele>0</ele><time>2020-01-01T00:01:25Z</time></trkpt>
      <trkpt lat="52.411081" lon="16.911026"><ele>0</ele><time>2020-01-01T00:01:30Z</time></trkpt>
      <trkpt lat="52.411104" lon="16.910941"><ele>0</ele><time>2020-01-01T00:01:35Z</time></trkpt>
      <trkpt lat="52.411126" lon="16.910857"><ele>0</ele><time>2020-01-01T00:01:40Z</time></trkpt>
      <trkpt lat="52.411149" lon="16.910773"><ele>0</ele><time>2020-01-01T00:01:45Z</time></trkpt>
      <trkpt lat="52.411172" lon="16.910689"><ele>0</ele><time>2020-01-01T00:01:50Z</time></trkpt>
      <trkpt lat="52.411195" lon="16.910605"><ele>0</ele><time>2020-01-01T00:01:55Z</time></trkpt>
      <trkpt lat="52.411218" lon="16.910521"><ele>0</ele><time>2020-01-01T00:02:00Z</time></trkpt>
      <trkpt lat="52.411241" lon="16.910437"><ele>0</ele><time>2020-01-01T00:02:05Z</time></trkpt>
      <trkpt lat="52.411264" lon="16.910353"><ele>0</ele><time>2020-01-01T00:02:10Z</time></trkpt>
      <trkpt lat="52.411283" lon="16.910266"><ele>0</ele><time>2020-01-01T00:02:15Z</time></trkpt>
      <trkpt lat="52.411302" lon="16.910179"><ele>0</ele><time>2020-01-01T00:02:20Z</time></trkpt>
      <trkpt lat="52.411321" lon="16.910093"><ele>0</ele><time>2020-01-01T00:02:25Z</time></trkpt>
      <trkpt lat="52.411341" lon="16.910006"><ele>0</ele><time>2020-01-01T00:02:30Z</time></trkpt>
      <trkpt lat="52.411360" lon="16.909919"><ele>0</ele><time>2020-01-01T00:02:35Z</time></trkpt>
      <trkpt lat="52.411379" lon="16.909833"><ele>0</ele><time>2020-01-01T00:02:40Z</time></trkpt>
      <trkpt lat="52.411398" lon="16.909746"><ele>0</ele><time>2020-01-01T00:02:45Z</time></trkpt>
      <trkpt lat="52.411417" lon="16.909659"><ele>0</ele><time>2020-01-01T00:02:50Z</time></trkpt>
      <trkpt lat="52.411436" lon="16.909573"><ele>0</ele><time>2020-01-01T00:02:55Z</time></trkpt>
      <trkpt lat="52.411455" lon="16.909486"><ele>0</ele><time>2020-01-01T00:03:00Z</time></trkpt>
      <trkpt lat="52.411474" lon="16.909399"><ele>0</ele><time>2020-01-01T00:03:05Z</time></trkpt>
      <trkpt lat="52.411493" lon="16.909312"><ele>0</ele><time>2020-01-01T00:03:10Z</time></trkpt>
      <trkpt lat="52.411512" lon="16.909226"><ele>0</ele><time>2020-01-01T00:03:15Z</time></trkpt>
      <trkpt lat="52.411531" lon="16.909139"><ele>0</ele><time>2020-01-01T00:03:20Z</time></trkpt>
      <trkpt lat="52.411550" lon="16.909052"><ele>0</ele><time>2020-01-01T00:03:25Z</time></trkpt>
      <trkpt lat="52.411569" lon="16.908966"><ele>0</ele><time>2020-01-01T00:03:30Z</time></trkpt>
      <trkpt lat="52.411588" lon="16.908879"><ele>0</ele><time>2020-01-01T00:03:35Z</time></trkpt>
      <trkpt lat="52.411607" lon="16.908792"><ele>0</ele><time>2020-01-01T00:03:40Z</time></trkpt>
      <trkpt lat="52.411626" lon="16.908706"><ele>0</ele><time>2020-01-01T00:03:45Z</time></trkpt>
      <trkpt lat="52.411645" lon="16.908619"><ele>0</ele><time>2020-01-01T00:03:50Z</time></trkpt>
      <trkpt lat="52.411664" lon="16.908532"><ele>0</ele><time>2020-01-01T00:03:55Z</time></trkpt>
      <trkpt lat="52.411683" lon="16.908446"><ele>0</ele><time>2020-01-01T00:04:00Z</time></trkpt>
      <trkpt lat="52.411703" lon="16.908359"><ele>0</ele><time>2020-01-01T00:04:05Z</time></trkpt>
      <trkpt lat="52.411722" lon="16.908272"><ele>0</ele><time>2020-01-01T00:04:10Z</time></trkpt>
      <trkpt lat="52.411741" lon="16.908185"><ele>0</ele><time>2020-01-01T00:04:15Z</time></trkpt>
      <trkpt lat="52.411760" lon="16.908099"><ele>0</ele><time>2020-01-01T00:04:20Z</time></trkpt>
      <trkpt lat="52.411779" lon="16.908012"><ele>0</ele><time>2020-01-01T00:04:25Z</time></trkpt>
      <trkpt lat="52.411797" lon="16.907925"><ele>0</ele><time>2020-01-01T00:04:30Z</time></trkpt>
      <trkpt lat="52.411816" lon="16.907838"><ele>0</ele><time>2020-01-01T00:04:35Z</time></trkpt>
      <trkpt lat="52.411835" lon="16.907752"><ele>0</ele><time>2020-01-01T00:04:40Z</time></trkpt>
      <trkpt lat="52.411854" lon="16.907665"><ele>0</ele><time>2020-01-01T00:04:45Z</time></trkpt>
      <trkpt lat="52.411873" lon="16.907578"><ele>0</ele><time>2020-01-01T00:04:50Z</time></trkpt>
      <trkpt lat="52.411892" lon="16.907491"><ele>0</ele><time>2020-01-01T00:04:55Z</time></trkpt>
      <trkpt lat="52.411910" lon="16.907404"><ele>0</ele><time>2020-01-01T00:05:00Z</time></trkpt>
      <trkpt lat="52.411929" lon="16.907317"><ele>0</ele><time>2020-01-01T00:05:05Z</time></trkpt>
      <trkpt lat="52.411948" lon="16.907231"><ele>0</ele><time>2020-01-01T00:05:10Z</time></trkpt>
      <trkpt lat="52.411967" lon="16.907144"><ele>0</ele><time>2020-01-01T00:05:15Z</time></trkpt>
      <trkpt lat="52.411986" lon="16.907057"><ele>0</ele><time>2020-01-01T00:05:20Z</time></trkpt>
      <trkpt lat="52.412005" lon="16.906970"><ele>0</ele><time>2020-01-01T00:05:25Z</time></trkpt>
      <trkpt lat="52.412023" lon="16.906883"><ele>0</ele><time>2020-01-01T00:05:30Z</time></trkpt>
      <trkpt lat="52.412042" lon="16.906797"><ele>0</ele><time>2020-01-01T00:05:35Z</time></trkpt>
      <trkpt lat="52.412061" lon="16.906710"><ele>0</ele><time>2020-01-01T00:05:40Z</time></trkpt>
      <trkpt lat="52.412080" lon="16.906623"><ele>0</ele><time>2020-01-01T00:05:45Z</time></trkpt>
      <trkpt lat="52.412099" lon="16.906536"><ele>0</ele><time>2020-01-01T00:05:50Z</time></trkpt>
      <trkpt lat="52.412118" lon="16.906449"><ele>0</ele><time>2020-01-01T00:05:55Z</time></trkpt>
      <trkpt lat="52.412136" lon="16.906362"><ele>0</ele><time>2020-01-01T00:06:00Z</time></trkpt>
      <trkpt lat="52.412155" lon="16.906276"><ele>0</ele><time>2020-01-01T00:06:05Z</time></trkpt>
      <trkpt lat="52.412174" lon="16.906189"><ele>0</ele><time>2020-01-01T00:06:10Z</time></trkpt>
      <trkpt lat="52.412193" lon="16.906102"><ele>0</ele><time>2020-01-01T00:06:15Z</time></trkpt>
      <trkpt lat="52.412212" lon="16.906015"><ele>0</ele><time>2020-01-01T00:06:20Z</time></trkpt>
      <trkpt lat="52.412231" lon="16.905928"><ele>0</ele><time>2020-01-01T00:06:25Z</time></trkpt>
      <trkpt lat="52.412249" lon="16.905842"><ele>0</ele><time>2020-01-01T00:06:30Z</time></trkpt>
      <trkpt lat="52.412268" lon="16.905755"><ele>0</ele><time>2020-01-01T00:06:35Z</time></trkpt>
      <trkpt lat="52.412287" lon="16.905668"><ele>0</ele><time>2020-01-01T00:06:40Z</time></trkpt>
      <trkpt lat="52.412306" lon="16.905581"><ele>0</ele><time>2020-01-01T00:06:45Z</time></trkpt>
      <trkpt lat="52.412325" lon="16.905494"><ele>0</ele><time>2020-01-01T00:06:50Z</time></trkpt>
      <trkpt lat="52.412344" lon="16.905408"><ele>0</ele><time>2020-01-01T00:06:55Z</time></trkpt>
      <trkpt lat="52.412363" lon="16.905321"><ele>0</ele><time>2020-01-01T00:07:00Z</time></trkpt>
      <trkpt lat="52.412382" lon="16.905234"><ele>0</ele><time>2020-01-01T00:07:05Z</time></trkpt>
      <trkpt lat="52.412401" lon="16.905147"><ele>0</ele><time>2020-01-01T00:07:10Z</time></trkpt>
      <trkpt lat="52.412420" lon="16.905061"><ele>0</ele><time>2020-01-01T00:07:15Z</time></trkpt>
      <trkpt lat="52.412439" lon="16.904974"><ele>0</ele><time>2020-01-01T00:07:20Z</time></trkpt>
      <trkpt lat="52.412457" lon="16.904887"><ele>0</ele><time>2020-01-01T00:07:25Z</time></trkpt>
      <trkpt lat="52.412476" lon="16.904800"><ele>0</ele><time>2020-01-01T00:07:30Z</time></trkpt>
      <trkpt lat="52.412495" lon="16.904713"><ele>0</ele><time>2020-01-01T00:07:35Z</time></trkpt>
      <trkpt lat="52.412514" lon="16.904627"><ele>0</ele><time>2020-01-01T00:07:40Z</time></trkpt>
      <trkpt lat="52.412533" lon="16.904540"><ele>0</ele><time>2020-01-01T00:07:45Z</time></trkpt>
      <trkpt lat="52.412552" lon="16.904453"><ele>0</ele><time>2020-01-01T00:07:50Z</time></trkpt>
      <trkpt lat="52.412571" lon="16.904366"><ele>0</ele><time>2020-01-01T00:07:55Z</time></trkpt>
      <trkpt lat="52.412590" lon="16.904280"><ele>0</ele><time>2020-01-01T00:08:00Z</time></trkpt>
      <trkpt lat="52.412609" lon="16.904193"><ele>0</ele><time>2020-01-01T00:08:05Z</time></trkpt>
      <trkpt lat="52.412628" lon="16.904106"><ele>0</ele><time>2020-01-01T00:08:10Z</time></trkpt>
      <trkpt lat="52.412647" lon="16.904019"><ele>0</ele><time>2020-01-01T00:08:15Z</time></trkpt>
      <trkpt lat="52.412665" lon="16.903932"><ele>0</ele><time>2020-01-01T00:08:20Z</time></trkpt>
      <trkpt lat="52.412684" lon="16.903846"><ele>0</ele><time>2020-01-01T00:08:25Z</time></trkpt>
      <trkpt lat="52.412703" lon="16.903759"><ele>0</ele><time>2020-01-01T00:08:30Z</time></trkpt>
      <trkpt lat="52.412722" lon="16.903672"><ele>0</ele><time>2020-01-01T00:08:35Z</time></trkpt>
      <trkpt lat="52.412741" lon="16.903585"><ele>0</ele><time>2020-01-01T00:08:40Z</time></trkpt>
      <trkpt lat="52.412760" lon="16.903499"><ele>0</ele><time>2020-01-01T00:08:45Z</time></trkpt>
      <trkpt lat="52.412779" lon="16.903412"><ele>0</ele><time>2020-01-01T00:08:50Z</time></trkpt>
      <trkpt lat="52.412798" lon="16.903325"><ele>0</ele><time>2020-01-01T00:08:55Z</time></trkpt>
      <trkpt lat="52.412817" lon="16.903238"><ele>0</ele><time>2020-01-01T00:09:00Z</time></trkpt>
      <trkpt lat="52.412836" lon="16.903152"><ele>0</ele><time>2020-01-01T00:09:05Z</time></trkpt>
      <trkpt lat="52.412855" lon="16.903065"><ele>0</ele><time>2020-01-01T00:09:10Z</time></trkpt>
      <trkpt lat="52.412874" lon="16.902978"><ele>0</ele><time>2020-01-01T00:09:15Z</time></trkpt>
      <trkpt lat="52.412893" lon="16.902892"><ele>0</ele><time>2020-01-01T00:09:20Z</time></trkpt>
      <trkpt lat="52.412912" lon="16.902805"><ele>0</ele><time>2020-01-01T00:09:25Z</time></trkpt>
      <trkpt lat="52.412931" lon="16.902718"><ele>0</ele><time>2020-01-01T00:09:30Z</time></trkpt>
      <trkpt lat="52.412950" lon="16.902631"><ele>0</ele><time>2020-01-01T00:09:35Z</time></trkpt>
      <trkpt lat="52.412969" lon="16.902545"><ele>0</ele><time>2020-01-01T00:09:40Z</time></trkpt>
      <trkpt lat="52.412988" lon="16.902458"><ele>0</ele><time>2020-01-01T00:09:45Z</time></trkpt>
      <trkpt lat="52.413007" lon="16.902371"><ele>0</ele><time>2020-01-01T00:09:50Z</time></trkpt>
      <trkpt lat="52.413026" lon="16.902285"><ele>0</ele><time>2020-01-01T00:09:55Z</time></trkpt>
      <trkpt lat="52.413045" lon="16.902198"><ele>0</ele><time>2020-01-01T00:10:00Z</time></trkpt>
      <trkpt lat="52.413064" lon="16.902111"><ele>0</ele><time>2020-01-01T00:10:05Z</time></trkpt>
      <trkpt lat="52.413083" lon="16.902024"><ele>0</ele><time>2020-01-01T00:10:10Z</time></trkpt>
      <trkpt lat="52.413102" lon="16.901938"><ele>0</ele><time>2020-01-01T00:10:15Z</time></trkpt>
      <trkpt lat="52.413121" lon="16.901851"><ele>0</ele><time>2020-01-01T00:10:20Z</time></trkpt>
      <trkpt lat="52.413140" lon="16.901764"><ele>0</ele><time>2020-01-01T00:10:25Z</time></trkpt>
      <trkpt lat="52.413159" lon="16.901678"><ele>0</ele><time>2020-01-01T00:10:30Z</time></trkpt>
      <trkpt lat="52.413178" lon="16.901591"><ele>0</ele><time>2020-01-01T00:10:35Z</time></trkpt>
      <trkpt lat="52.413197" lon="16.901504"><ele>0</ele><time>2020-01-01T00:10:40Z</time></trkpt>
      <trkpt lat="52.413217" lon="16.901417"><ele>0</ele><time>2020-01-01T00:10:45Z</time></trkpt>
      <trkpt lat="52.413236" lon="16.901331"><ele>0</ele><time>2020-01-01T00:10:50Z</time></trkpt>
      <trkpt lat="52.413255" lon="16.901244"><ele>0</ele><time>2020-01-01T00:10:55Z</time></trkpt>
      <trkpt lat="52.413274" lon="16.901157"><ele>0</ele><time>2020-01-01T00:11:00Z</time></trkpt>
      <trkpt lat="52.413293" lon="16.901071"><ele>0</ele><time>2020-01-01T00:11:05Z</time></trkpt>
      <trkpt lat="52.413312" lon="16.900984"><ele>0</ele><time>2020-01-01T00:11:10Z</time></trkpt>
      <trkpt lat="52.413332" lon="16.900898"><ele>0</ele><time>2020-01-01T00:11:15Z</time></trkpt>
      <trkpt lat="52.413351" lon="16.900811"><ele>0</ele><time>2020-01-01T00:11:20Z</time></trkpt>
      <trkpt lat="52.413370" lon="16.900725"><ele>0</ele><time>2020-01-01T00:11:25Z</time></trkpt>
      <trkpt lat="52.413389" lon="16.900638"><ele>0</ele><time>2020-01-01T00:11:30Z</time></trkpt>
      <trkpt lat="52.413409" lon="16.900551"><ele>0</ele><time>2020-01-01T00:11:35Z</time></trkpt>
      <trkpt lat="52.413428" lon="16.900465"><ele>0</ele><time>2020-01-01T00:11:40Z</time></trkpt>
      <trkpt lat="52.413447" lon="16.900378"><ele>0</ele><time>2020-01-01T00:11:45Z</time></trkpt>
      <trkpt lat="52.413466" lon="16.900292"><ele>0</ele><time>2020-01-01T00:11:50Z</time></trkpt>
      <trkpt lat="52.413485" lon="16.900205"><ele>0</ele><time>2020-01-01T00:11:55Z</time></trkpt>
      <trkpt lat="52.413505" lon="16.900118"><ele>0</ele><time>2020-01-01T00:12:00Z</time></trkpt>
      <trkpt lat="52.413524" lon="16.900032"><ele>0</ele><time>2020-01-01T00:12:05Z</time></trkpt>
      <trkpt lat="52.413543" lon="16.899945"><ele>0</ele><time>2020-01-01T00:12:10Z</time></trkpt>
      <trkpt lat="52.413562" lon="16.899859"><ele>0</ele><time>2020-01-01T00:12:15Z</time></trkpt>
      <trkpt lat="52.413582" lon="16.899772"><ele>0</ele><time>2020-01-01T00:12:20Z</time></trkpt>
      <trkpt lat="52.413601" lon="16.899686"><ele>0</ele><time>2020-01-01T00:12:25Z</time></trkpt>
      <trkpt lat="52.413620" lon="16.899599"><ele>0</ele><time>2020-01-01T00:12:30Z</time></trkpt>
      <trkpt lat="52.413639" lon="16.899512"><ele>0</ele><time>2020-01-01T00:12:35Z</time></trkpt>
      <trkpt lat="52.413659" lon="16.899426"><ele>0</ele><time>2020-01-01T00:12:40Z</time></trkpt>
      <trkpt lat="52.413678" lon="16.899339"><ele>0</ele><time>2020-01-01T00:12:45Z</time></trkpt>
      <trkpt lat="52.413697" lon="16.899253"><ele>0</ele><time>2020-01-01T00:12:50Z</time></trkpt>
      <trkpt lat="52.413716" lon="16.899166"><ele>0</ele><time>2020-01-01T00:12:55Z</time></trkpt>
      <trkpt lat="52.413736" lon="16.899080"><ele>0</ele><time>2020-01-01T00:13:00Z</time></trkpt>
      <trkpt lat="52.413755" lon="16.898993"><ele>0</ele><time>2020-01-01T00:13:05Z</time></trkpt>
      <trkpt lat="52.413777" lon="16.898908"><ele>0</ele><time>2020-01-01T00:13:10Z</time></trkpt>
      <trkpt lat="52.413799" lon="16.898823"><ele>0</ele><time>2020-01-01T00:13:15Z</time></trkpt>
      <trkpt lat="52.413822" lon="16.898739"><ele>0</ele><time>2020-01-01T00:13:20Z</time></trkpt>
      <trkpt lat="52.413844" lon="16.898655"><ele>0</ele><time>2020-01-01T00:13:25Z</time></trkpt>
      <trkpt lat="52.413867" lon="16.898570"><ele>0</ele><time>2020-01-01T00:13:30Z</time></trkpt>
      <trkpt lat="52.413889" lon="16.898486"><ele>0</ele><time>2020-01-01T00:13:35Z</time></trkpt>
      <trkpt lat="52.413912" lon="16.898401"><ele>0</ele><time>2020-01-01T00:13:40Z</time></trkpt>
      <trkpt lat="52.413934" lon="16.898317"><ele>0</ele><time>2020-01-01T00:13:45Z</time></trkpt>
      <trkpt lat="52.413957" lon="16.898232"><ele>0</ele><time>2020-01-01T00:13:50Z</time></trkpt>
      <trkpt lat="52.413979" lon="16.898148"><ele>0</ele><time>2020-01-01T00:13:55Z</time></trkpt>
      <trkpt lat="52.414002" lon="16.898064"><ele>0</ele><time>2020-01-01T00:14:00Z</time></trkpt>
      <trkpt lat="52.414024" lon="16.897979"><ele>0</ele><time>2020-01-01T00:14:05Z</time></trkpt>
      <trkpt lat="52.414047" lon="16.897895"><ele>0</ele><time>2020-01-01T00:14:10Z</time></trkpt>
      <trkpt lat="52.414069" lon="16.897810"><ele>0</ele><time>2020-01-01T00:14:15Z</time></trkpt>
      <trkpt lat="52.414092" lon="16.897726"><ele>0</ele><time>2020-01-01T00:14:20Z</time></trkpt>
      <trkpt lat="52.414114" lon="16.897641"><ele>0</ele><time>2020-01-01T00:14:25Z</time></trkpt>
      <trkpt lat="52.414137" lon="16.897557"><ele>0</ele><time>2020-01-01T00:14:30Z</time></trkpt>
      <trkpt lat="52.414159" lon="16.897473"><ele>0</ele><time>2020-01-01T00:14:35Z</time></trkpt>
      <trkpt lat="52.414182" lon="16.897388"><ele>0</ele><time>2020-01-01T00:14:40Z</time></trkpt>
      <trkpt lat="52.414204" lon="16.897304"><ele>0</ele><time>2020-01-01T00:14:45Z</time></trkpt>
      <trkpt lat="52.414227" lon="16.897219"><ele>0</ele><time>2020-01-01T00:14:50Z</time></trkpt>
      <trkpt lat="52.414249" lon="16.897135"><ele>0</ele><time>2020-01-01T00:14:55Z</time></trkpt>
      <trkpt lat="52.414272" lon="16.897050"><ele>0</ele><time>2020-01-01T00:15:00Z</time></trkpt>
      <trkpt lat="52.414294" lon="16.896966"><ele>0</ele><time>2020-01-01T00:15:05Z</time></trkpt>
      <trkpt lat="52.414317" lon="16.896881"><ele>0</ele><time>2020-01-01T00:15:10Z</time></trkpt>
      <trkpt lat="52.414339" lon="16.896797"><ele>0</ele><time>2020-01-01T00:15:15Z</time></trkpt>
      <trkpt lat="52.414359" lon="16.896711"><ele>0</ele><time>2020-01-01T00:15:20Z</time></trkpt>
      <trkpt lat="52.414376" lon="16.896623"><ele>0</ele><time>2020-01-01T00:15:25Z</time></trkpt>
      <trkpt lat="52.414393" lon="16.896535"><ele>0</ele><time>2020-01-01T00:15:30Z</time></trkpt>
      <trkpt lat="52.414410" lon="16.896447"><ele>0</ele><time>2020-01-01T00:15:35Z</time></trkpt>
      <trkpt lat="52.414427" lon="16.896359"><ele>0</ele><time>2020-01-01T00:15:40Z</time></trkpt>
      <trkpt lat="52.414444" lon="16.896272"><ele>0</ele><time>2020-01-01T00:15:45Z</time></trkpt>
      <trkpt lat="52.414461" lon="16.896184"><ele>0</ele><time>2020-01-01T00:15:50Z</time></trkpt>
      <trkpt lat="52.414478" lon="16.896096"><ele>0</ele><time>2020-01-01T00:15:55Z</time></trkpt>
      <trkpt lat="52.414495" lon="16.896008"><ele>0</ele><time>2020-01-01T00:16:00Z</time></trkpt>
      <trkpt lat="52.414512" lon="16.895920"><ele>0</ele><time>2020-01-01T00:16:05Z</time></trkpt>
      <trkpt lat="52.414529" lon="16.895833"><ele>0</ele><time>2020-01-01T00:16:10Z</time></trkpt>
      <trkpt lat="52.414546" lon="16.895745"><ele>0</ele><time>2020-01-01T00:16:15Z</time></trkpt>
      <trkpt lat="52.414563" lon="16.895657"><ele>0</ele><time>2020-01-01T00:16:20Z</time></trkpt>
      <trkpt lat="52.414581" lon="16.895569"><ele>0</ele><time>2020-01-01T00:16:25Z</time></trkpt>
      <trkpt lat="52.414598" lon="16.895481"><ele>0</ele><time>2020-01-01T00:16:30Z</time></trkpt>
      <trkpt lat="52.414615" lon="16.895394"><ele>0</ele><time>2020-01-01T00:16:35Z</time></trkpt>
      <trkpt lat="52.414632" lon="16.895306"><ele>0</ele><time>2020-01-01T00:16:40Z</time></trkpt>
      <trkpt lat="52.414649" lon="16.895218"><ele>0</ele><time>2020-01-01T00:16:45Z</time></trkpt>
      <trkpt lat="52.414666" lon="16.895130"><ele>0</ele><time>2020-01-01T00:16:50Z</time></trkpt>
      <trkpt lat="52.414683" lon="16.895042"><ele>0</ele><time>2020-01-01T00:16:55Z</time></trkpt>
      <trkpt lat="52.414700" lon="16.894955"><ele>0</ele><time>2020-01-01T00:17:00Z</time></trkpt>
      <trkpt lat="52.414717" lon="16.894867"><ele>0</ele><time>2020-01-01T00:17:05Z</time></trkpt>
      <trkpt lat="52.414734" lon="16.894779"><ele>0</ele><time>2020-01-01T00:17:10Z</time></trkpt>
      <trkpt lat="52.414751" lon="16.894691"><ele>0</ele><time>2020-01-01T00:17:15Z</time></trkpt>
      <trkpt lat="52.414768" lon="16.894603"><ele>0</ele><time>2020-01-01T00:17:20Z</time></trkpt>
      <trkpt lat="52.414785" lon="16.894516"><ele>0</ele><time>2020-01-01T00:17:25Z</time></trkpt>
      <trkpt lat="52.414803" lon="16.894428"><ele>0</ele><time>2020-01-01T00:17:30Z</time></trkpt>
      <trkpt lat="52.414822" lon="16.894342"><ele>0</ele><time>2020-01-01T00:17:35Z</time></trkpt>
      <trkpt lat="52.414841" lon="16.894255"><ele>0</ele><time>2020-01-01T00:17:40Z</time></trkpt>
      <trkpt lat="52.414861" lon="16.894168"><ele>0</ele><time>2020-01-01T00:17:45Z</time></trkpt>
      <trkpt lat="52.414880" lon="16.894082"><ele>0</ele><time>2020-01-01T00:17:50Z</time></trkpt>
      <trkpt lat="52.414899" lon="16.893995"><ele>0</ele><time>2020-01-01T00:17:55Z</time></trkpt>
      <trkpt lat="52.414918" lon="16.893908"><ele>0</ele><time>2020-01-01T00:18:00Z</time></trkpt>
      <trkpt lat="52.414937" lon="16.893822"><ele>0</ele><time>2020-01-01T00:18:05Z</time></trkpt>
      <trkpt lat="52.414956" lon="16.893735"><ele>0</ele><time>2020-01-01T00:18:10Z</time></trkpt>
      <trkpt lat="52.414976" lon="16.893649"><ele>0</ele><time>2020-01-01T00:18:15Z</time></trkpt>
      <trkpt lat="52.414995" lon="16.893562"><ele>0</ele><time>2020-01-01T00:18:20Z</time></trkpt>
      <trkpt lat="52.415014" lon="16.893475"><ele>0</ele><time>2020-01-01T00:18:25Z</time></trkpt>
      <trkpt lat="52.415033" lon="16.893389"><ele>0</ele><time>2020-01-01T00:18:30Z</time></trkpt>
      <trkpt lat="52.415052" lon="16.893302"><ele>0</ele><time>2020-01-01T00:18:35Z</time></trkpt>
      <trkpt lat="52.415072" lon="16.893215"><ele>0</ele><time>2020-01-01T00:18:40Z</time></trkpt>
      <trkpt lat="52.415091" lon="16.893129"><ele>0</ele><time>2020-01-01T00:18:45Z</time></trkpt>
      <trkpt lat="52.415110" lon="16.893042"><ele>0</ele><time>2020-01-01T00:18:50Z</time></trkpt>
      <trkpt lat="52.415129" lon="16.892956"><ele>0</ele><time>2020-01-01T00:18:55Z</time></trkpt>
      <trkpt lat="52.415148" lon="16.892869"><ele>0</ele><time>2020-01-01T00:19:00Z</time></trkpt>
      <trkpt lat="52.415167" lon="16.892782"><ele>0</ele><time>2020-01-01T00:19:05Z</time></trkpt>
      <trkpt lat="52.415187" lon="16.892696"><ele>0</ele><time>2020-01-01T00:19:10Z</time></trkpt>
      <trkpt lat="52.415206" lon="16.892609"><ele>0</ele><time>2020-01-01T00:19:15Z</time></trkpt>
      <trkpt lat="52.415225" lon="16.892522"><ele>0</ele><time>2020-01-01T00:19:20Z</time></trkpt>
      <trkpt lat="52.415244" lon="16.892436"><ele>0</ele><time>2020-01-01T00:19:25Z</time></trkpt>
      <trkpt lat="52.415263" lon="16.892349"><ele>0</ele><time>2020-01-01T00:19:30Z</time></trkpt>
      <trkpt lat="52.415282" lon="16.892263"><ele>0</ele><time>2020-01-01T00:19:35Z</time></trkpt>
      <trkpt lat="52.415302" lon="16.892176"><ele>0</ele><time>2020-01-01T00:19:40Z</time></trkpt>
      <trkpt lat="52.415323" lon="16.892091"><ele>0</ele><time>2020-01-01T00:19:45Z</time></trkpt>
      <trkpt lat="52.415345" lon="16.892006"><ele>0</ele><time>2020-01-01T00:19:50Z</time></trkpt>
      <trkpt lat="52.415366" lon="16.891920"><ele>0</ele><time>2020-01-01T00:19:55Z</time></trkpt>
      <trkpt lat="52.415387" lon="16.891835"><ele>0</ele><time>2020-01-01T00:20:00Z</time></trkpt>
      <trkpt lat="52.415409" lon="16.891750"><ele>0</ele><time>2020-01-01T00:20:05Z</time></trkpt>
      <trkpt lat="52.415430" lon="16.891665"><ele>0</ele><time>2020-01-01T00:20:10Z</time></trkpt>
      <trkpt lat="52.415451" lon="16.891579"><ele>0</ele><time>2020-01-01T00:20:15Z</time></trkpt>
      <trkpt lat="52.415473" lon="16.891494"><ele>0</ele><time>2020-01-01T00:20:20Z</time></trkpt>
      <trkpt lat="52.415494" lon="16.891409"><ele>0</ele><time>2020-01-01T00:20:25Z</time></trkpt>
      <trkpt lat="52.415515" lon="16.891323"><ele>0</ele><time>2020-01-01T00:20:30Z</time></trkpt>
      <trkpt lat="52.415537" lon="16.891238"><ele>0</ele><time>2020-01-01T00:20:35Z</time></trkpt>
      <trkpt lat="52.415558" lon="16.891153"><ele>0</ele><time>2020-01-01T00:20:40Z</time></trkpt>
      <trkpt lat="52.415579" lon="16.891068"><ele>0</ele><time>2020-01-01T00:20:45Z</time></trkpt>
      <trkpt lat="52.415601" lon="16.890982"><ele>0</ele><time>2020-01-01T00:20:50Z</time></trkpt>
      <trkpt lat="52.415622" lon="16.890897"><ele>0</ele><time>2020-01-01T00:20:55Z</time></trkpt>
      <trkpt lat="52.415643" lon="16.890812"><ele>0</ele><time>2020-01-01T00:21:00Z</time></trkpt>
      <trkpt lat="52.415665" lon="16.890727"><ele>0</ele><time>2020-01-01T00:21:05Z</time></trkpt>
      <trkpt lat="52.415686" lon="16.890641"><ele>0</ele><time>2020-01-01T00:21:10Z</time></trkpt>
      <trkpt lat="52.415707" lon="16.890556"><ele>0</ele><time>2020-01-01T00:21:15Z</time></trkpt>
      <trkpt lat="52.415728" lon="16.890471"><ele>0</ele><time>2020-01-01T00:21:20Z</time></trkpt>
      <trkpt lat="52.415750" lon="16.890386"><ele>0</ele><time>2020-01-01T00:21:25Z</time></trkpt>
      <trkpt lat="52.415771" lon="16.890300"><ele>0</ele><time>2020-01-01T00:21:30Z</time></trkpt>
      <trkpt lat="52.415792" lon="16.890215"><ele>0</ele><time>2020-01-01T00:21:35Z</time></trkpt>
      <trkpt lat="52.415814" lon="16.890130"><ele>0</ele><time>2020-01-01T00:21:40Z</time></trkpt>
      <trkpt lat="52.415835" lon="16.890045"><ele>0</ele><time>2020-01-01T00:21:45Z</time></trkpt>
      <trkpt lat="52.415856" lon="16.889959"><ele>0</ele><time>2020-01-01T00:21:50Z</time></trkpt>
      <trkpt lat="52.415872" lon="16.889871"><ele>0</ele><time>2020-01-01T00:21:55Z</time></trkpt>
      <trkpt lat="52.415888" lon="16.889783"><ele>0</ele><time>2020-01-01T00:22:00Z</time></trkpt>
      <trkpt lat="52.415905" lon="16.889694"><ele>0</ele><time>2020-01-01T00:22:05Z</time></trkpt>
      <trkpt lat="52.415921" lon="16.889606"><ele>0</ele><time>2020-01-01T00:22:10Z</time></trkpt>
      <trkpt lat="52.415937" lon="16.889518"><ele>0</ele><time>2020-01-01T00:22:15Z</time></trkpt>
      <trkpt lat="52.415953" lon="16.889429"><ele>0</ele><time>2020-01-01T00:22:20Z</time></trkpt>
      <trkpt lat="52.415969" lon="16.889341"><ele>0</ele><time>2020-01-01T00:22:25Z</time></trkpt>
      <trkpt lat="52.415985" lon="16.889253"><ele>0</ele><time>2020-01-01T00:22:30Z</time></trkpt>
      <trkpt lat="52.416001" lon="16.889164"><ele>0</ele><time>2020-01-01T00:22:35Z</time></trkpt>
      <trkpt lat="52.416017" lon="16.889076"><ele>0</ele><time>2020-01-01T00:22:40Z</time></trkpt>
      <trkpt lat="52.416033" lon="16.888988"><ele>0</ele><time>2020-01-01T00:22:45Z</time></trkpt>
      <trkpt lat="52.416049" lon="16.888900"><ele>0</ele><time>2020-01-01T00:22:50Z</time></trkpt>
      <trkpt lat="52.416065" lon="16.888811"><ele>0</ele><time>2020-01-01T00:22:55Z</time></trkpt>
      <trkpt lat="52.416082" lon="16.888723"><ele>0</ele><time>2020-01-01T00:23:00Z</time></trkpt>
      <trkpt lat="52.416098" lon="16.888635"><ele>0</ele><time>2020-01-01T00:23:05Z</time></trkpt>
      <trkpt lat="52.416114" lon="16.888546"><ele>0</ele><time>2020-01-01T00:23:10Z</time></trkpt>
      <trkpt lat="52.416130" lon="16.888458"><ele>0</ele><time>2020-01-01T00:23:15Z</time></trkpt>
      <trkpt lat="52.416146" lon="16.888370"><ele>0</ele><time>2020-01-01T00:23:20Z</time></trkpt>
      <trkpt lat="52.416162" lon="16.888281"><ele>0</ele><time>2020-01-01T00:23:25Z</time></trkpt>
      <trkpt lat="52.416178" lon="16.888193"><ele>0</ele><time>2020-01-01T00:23:30Z</time></trkpt>
      <trkpt lat="52.416194" lon="16.888105"><ele>0</ele><time>2020-01-01T00:23:35Z</time></trkpt>
      <trkpt lat="52.416210" lon="16.888017"><ele>0</ele><time>2020-01-01T00:23:40Z</time></trkpt>
      <trkpt lat="52.416226" lon="16.887928"><ele>0</ele><time>2020-01-01T00:23:45Z</time></trkpt>
      <trkpt lat="52.416242" lon="16.887840"><ele>0</ele><time>2020-01-01T00:23:50Z</time></trkpt>
      <trkpt lat="52.416258" lon="16.887752"><ele>0</ele><time>2020-01-01T00:23:55Z</time></trkpt>
      <trkpt lat="52.416275" lon="16.887663"><ele>0</ele><time>2020-01-01T00:24:00Z</time></trkpt>
      <trkpt lat="52.416293" lon="16.887576"><ele>0</ele><time>2020-01-01T00:24:05Z</time></trkpt>
      <trkpt lat="52.416312" lon="16.887490"><ele>0</ele><time>2020-01-01T00:24:10Z</time></trkpt>
      <trkpt lat="52.416331" lon="16.887403"><ele>0</ele><time>2020-01-01T00:24:15Z</time></trkpt>
      <trkpt lat="52.416350" lon="16.887316"><ele>0</ele><time>2020-01-01T00:24:20Z</time></trkpt>
      <trkpt lat="52.416369" lon="16.887229"><ele>0</ele><time>2020-01-01T00:24:25Z</time></trkpt>
      <trkpt lat="52.416388" lon="16.887143"><ele>0</ele><time>2020-01-01T00:24:30Z</time></trkpt>
      <trkpt lat="52.416407" lon="16.887056"><ele>0</ele><time>2020-01-01T00:24:35Z</time></trkpt>
      <trkpt lat="52.416426" lon="16.886969"><ele>0</ele><time>2020-01-01T00:24:40Z</time></trkpt>
      <trkpt lat="52.416445" lon="16.886883"><ele>0</ele><time>2020-01-01T00:24:45Z</time></trkpt>
      <trkpt lat="52.416464" lon="16.886796"><ele>0</ele><time>2020-01-01T00:24:50Z</time></trkpt>
      <trkpt lat="52.416483" lon="16.886709"><ele>0</ele><time>2020-01-01T00:24:55Z</time></trkpt>
      <trkpt lat="52.416502" lon="16.886622"><ele>0</ele><time>2020-01-01T00:25:00Z</time></trkpt>
      <trkpt lat="52.416521" lon="16.886536"><ele>0</ele><time>2020-01-01T00:25:05Z</time></trkpt>
      <trkpt lat="52.416540" lon="16.886449"><ele>0</ele><time>2020-01-01T00:25:10Z</time></trkpt>
      <trkpt lat="52.416559" lon="16.886362"><ele>0</ele><time>2020-01-01T00:25:15Z</time></trkpt>
      <trkpt lat="52.416578" lon="16.886275"><ele>0</ele><time>2020-01-01T00:25:20Z</time></trkpt>
      <trkpt lat="52.416597" lon="16.886189"><ele>0</ele><time>2020-01-01T00:25:25Z</time></trkpt>
      <trkpt lat="52.416616" lon="16.886102"><ele>0</ele><time>2020-01-01T00:25:30Z</time></trkpt>
      <trkpt lat="52.416635" lon="16.886015"><ele>0</ele><time>2020-01-01T00:25:35Z</time></trkpt>
      <trkpt lat="52.416654" lon="16.885928"><ele>0</ele><time>2020-01-01T00:25:40Z</time></trkpt>
      <trkpt lat="52.416673" lon="16.885842"><ele>0</ele><time>2020-01-01T00:25:45Z</time></trkpt>
      <trkpt lat="52.416692" lon="16.885755"><ele>0</ele><time>2020-01-01T00:25:50Z</time></trkpt>
      <trkpt lat="52.416711" lon="16.885668"><ele>0</ele><time>2020-01-01T00:25:55Z</time></trkpt>
      <trkpt lat="52.416730" lon="16.885581"><ele>0</ele><time>2020-01-01T00:26:00Z</time></trkpt>
      <trkpt lat="52.416749" lon="16.885495"><ele>0</ele><time>2020-01-01T00:26:05Z</time></trkpt>
      <trkpt lat="52.416768" lon="16.885408"><ele>0</ele><time>2020-01-01T00:26:10Z</time></trkpt>
      <trkpt lat="52.416787" lon="16.885321"><ele>0</ele><time>2020-01-01T00:26:15Z</time></trkpt>
      <trkpt lat="52.416806" lon="16.885235"><ele>0</ele><time>2020-01-01T00:26:20Z</time></trkpt>
      <trkpt lat="52.416825" lon="16.885148"><ele>0</ele><time>2020-01-01T00:26:25Z</time></trkpt>
      <trkpt lat="52.416844" lon="16.885061"><ele>0</ele><time>2020-01-01T00:26:30Z</time></trkpt>
      <trkpt lat="52.416864" lon="16.884975"><ele>0</ele><time>2020-01-01T00:26:35Z</time></trkpt>
      <trkpt lat="52.416883" lon="16.884888"><ele>0</ele><time>2020-01-01T00:26:40Z</time></trkpt>
      <trkpt lat="52.416902" lon="16.884801"><ele>0</ele><time>2020-01-01T00:26:45Z</time></trkpt>
      <trkpt lat="52.416921" lon="16.884715"><ele>0</ele><time>2020-01-01T00:26:50Z</time></trkpt>
      <trkpt lat="52.416940" lon="16.884628"><ele>0</ele><time>2020-01-01T00:26:55Z</time></trkpt>
      <trkpt lat="52.416959" lon="16.884542"><ele>0</ele><time>2020-01-01T00:27:00Z</time></trkpt>
      <trkpt lat="52.416979" lon="16.884455"><ele>0</ele><time>2020-01-01T00:27:05Z</time></trkpt>
      <trkpt lat="52.416998" lon="16.884368"><ele>0</ele><time>2020-01-01T00:27:10Z</time></trkpt>
      <trkpt lat="52.417017" lon="16.884282"><ele>0</ele><time>2020-01-01T00:27:15Z</time></trkpt>
      <trkpt lat="52.417036" lon="16.884195"><ele>0</ele><time>2020-01-01T00:27:20Z</time></trkpt>
      <trkpt lat="52.417055" lon="16.884108"><ele>0</ele><time>2020-01-01T00:27:25Z</time></trkpt>
      <trkpt lat="52.417074" lon="16.884022"><ele>0</ele><time>2020-01-01T00:27:30Z</time></trkpt>
      <trkpt lat="52.417094" lon="16.883935"><ele>0</ele><time>2020-01-01T00:27:35Z</time></trkpt>
      <trkpt lat="52.417113" lon="16.883849"><ele>0</ele><time>2020-01-01T00:27:40Z</time></trkpt>
      <trkpt lat="52.417132" lon="16.883762"><ele>0</ele><time>2020-01-01T00:27:45Z</time></trkpt>
      <trkpt lat="52.417151" lon="16.883675"><ele>0</ele><time>2020-01-01T00:27:50Z</time></trkpt>
      <trkpt lat="52.417170" lon="16.883589"><ele>0</ele><time>2020-01-01T00:27:55Z</time></trkpt>
      <trkpt lat="52.417189" lon="16.883502"><ele>0</ele><time>2020-01-01T00:28:00Z</time></trkpt>
      <trkpt lat="52.417209" lon="16.883415"><ele>0</ele><time>2020-01-01T00:28:05Z</time></trkpt>
      <trkpt lat="52.417228" lon="16.883329"><ele>0</ele><time>2020-01-01T00:28:10Z</time></trkpt>
      <trkpt lat="52.417247" lon="16.883242"><ele>0</ele><time>2020-01-01T00:28:15Z</time></trkpt>
      <trkpt lat="52.417266" lon="16.883155"><ele>0</ele><time>2020-01-01T00:28:20Z</time></trkpt>
      <trkpt lat="52.417289" lon="16.883072"><ele>0</ele><time>2020-01-01T00:28:25Z</time></trkpt>
      <trkpt lat="52.417317" lon="16.882992"><ele>0</ele><time>2020-01-01T00:28:30Z</time></trkpt>
      <trkpt lat="52.417346" lon="16.882913"><ele>0</ele><time>2020-01-01T00:28:35Z</time></trkpt>
      <trkpt lat="52.417374" lon="16.882833"><ele>0</ele><time>2020-01-01T00:28:40Z</time></trkpt>
      <trkpt lat="52.417403" lon="16.882754"><ele>0</ele><time>2020-01-01T00:28:45Z</time></trkpt>
      <trkpt lat="52.417431" lon="16.882674"><ele>0</ele><time>2020-01-01T00:28:50Z</time></trkpt>
      <trkpt lat="52.417460" lon="16.882595"><ele>0</ele><time>2020-01-01T00:28:55Z</time></trkpt>
      <trkpt lat="52.417488" lon="16.882516"><ele>0</ele><time>2020-01-01T00:29:00Z</time></trkpt>
      <trkpt lat="52.417517" lon="16.882436"><ele>0</ele><time>2020-01-01T00:29:05Z</time></trkpt>
      <trkpt lat="52.417545" lon="16.882357"><ele>0</ele><time>2020-01-01T00:29:10Z</time></trkpt>
      <trkpt lat="52.417574" lon="16.882277"><ele>0</ele><time>2020-01-01T00:29:15Z</time></trkpt>
      <trkpt lat="52.417602" lon="16.882198"><ele>0</ele><time>2020-01-01T00:29:20Z</time></trkpt>
      <trkpt lat="52.417631" lon="16.882118"><ele>0</ele><time>2020-01-01T00:29:25Z</time></trkpt>
      <trkpt lat="52.417659" lon="16.882039"><ele>0</ele><time>2020-01-01T00:29:30Z</time></trkpt>
      <trkpt lat="52.417688" lon="16.881959"><ele>0</ele><time>2020-01-01T00:29:35Z</time></trkpt>
      <trkpt lat="52.417716" lon="16.881880"><ele>0</ele><time>2020-01-01T00:29:40Z</time></trkpt>
      <trkpt lat="52.417745" lon="16.881801"><ele>0</ele><time>2020-01-01T00:29:45Z</time></trkpt>
      <trkpt lat="52.417773" lon="16.881721"><ele>0</ele><time>2020-01-01T00:29:50Z</time></trkpt>
      <trkpt lat="52.417802" lon="16.881642"><ele>0</ele><time>2020-01-01T00:29:55Z</time></trkpt>
      <trkpt lat="52.417830" lon="16.881562"><ele>0</ele><time>2020-01-01T00:30:00Z</time></trkpt>
      <trkpt lat="52.417859" lon="16.881483"><ele>0</ele><time>2020-01-01T00:30:05Z</time></trkpt>
      <trkpt lat="52.417887" lon="16.881403"><ele>0</ele><time>2020-01-01T00:30:10Z</time></trkpt>
      <trkpt lat="52.417916" lon="16.881324"><ele>0</ele><time>2020-01-01T00:30:15Z</time></trkpt>
      <trkpt lat="52.417944" lon="16.881244"><ele>0</ele><time>2020-01-01T00:30:20Z</time></trkpt>
      <trkpt lat="52.417973" lon="16.881165"><ele>0</ele><time>2020-01-01T00:30:25Z</time></trkpt>
      <trkpt lat="52.418001" lon="16.881086"><ele>0</ele><time>2020-01-01T00:30:30Z</time></trkpt>
      <trkpt lat="52.418030" lon="16.881006"><ele>0</ele><time>2020-01-01T00:30:35Z</time></trkpt>
      <trkpt lat="52.418060" lon="16.880929"><ele>0</ele><time>2020-01-01T00:30:40Z</time></trkpt>
      <trkpt lat="52.418090" lon="16.880851"><ele>0</ele><time>2020-01-01T00:30:45Z</time></trkpt>
      <trkpt lat="52.418121" lon="16.880773"><ele>0</ele><time>2020-01-01T00:30:50Z</time></trkpt>
      <trkpt lat="52.418151" lon="16.880696"><ele>0</ele><time>2020-01-01T00:30:55Z</time></trkpt>
      <trkpt lat="52.418181" lon="16.880618"><ele>0</ele><time>2020-01-01T00:31:00Z</time></trkpt>
      <trkpt lat="52.418211" lon="16.880540"><ele>0</ele><time>2020-01-01T00:31:05Z</time></trkpt>
      <trkpt lat="52.418242" lon="16.880463"><ele>0</ele><time>2020-01-01T00:31:10Z</time></trkpt>
      <trkpt lat="52.418272" lon="16.880385"><ele>0</ele><time>2020-01-01T00:31:15Z</time></trkpt>
      <trkpt lat="52.418302" lon="16.880307"><ele>0</ele><time>2020-01-01T00:31:20Z</time></trkpt>
      <trkpt lat="52.418332" lon="16.880229"><ele>0</ele><time>2020-01-01T00:31:25Z</time></trkpt>
      <trkpt lat="52.418363" lon="16.880152"><ele>0</ele><time>2020-01-01T00:31:30Z</time></trkpt>
      <trkpt lat="52.418393" lon="16.880074"><ele>0</ele><time>2020-01-01T00:31:35Z</time></trkpt>
      <trkpt lat="52.418423" lon="16.879996"><ele>0</ele><time>2020-01-01T00:31:40Z</time></trkpt>
      <trkpt lat="52.418453" lon="16.879919"><ele>0</ele><time>2020-01-01T00:31:45Z</time></trkpt>
      <trkpt lat="52.418483" lon="16.879841"><ele>0</ele><time>2020-01-01T00:31:50Z</time></trkpt>
      <trkpt lat="52.418514" lon="16.879763"><ele>0</ele><time>2020-01-01T00:31:55Z</time></trkpt>
      <trkpt lat="52.418544" lon="16.879686"><ele>0</ele><time>2020-01-01T00:32:00Z</time></trkpt>
      <trkpt lat="52.418574" lon="16.879608"><ele>0</ele><time>2020-01-01T00:32:05Z</time></trkpt>
      <trkpt lat="52.418604" lon="16.879530"><ele>0</ele><time>2020-01-01T00:32:10Z</time></trkpt>
      <trkpt lat="52.418635" lon="16.879453"><ele>0</ele><time>2020-01-01T00:32:15Z</time></trkpt>
      <trkpt lat="52.418665" lon="16.879375"><ele>0</ele><time>2020-01-01T00:32:20Z</time></trkpt>
      <trkpt lat="52.418695" lon="16.879297"><ele>0</ele><time>2020-01-01T00:32:25Z</time></trkpt>
      <trkpt lat="52.418725" lon="16.879220"><ele>0</ele><time>2020-01-01T00:32:30Z</time></trkpt>
      <trkpt lat="52.418756" lon="16.879142"><ele>0</ele><time>2020-01-01T00:32:35Z</time></trkpt>
      <trkpt lat="52.418786" lon="16.879064"><ele>0</ele><time>2020-01-01T00:32:40Z</time></trkpt>
      <trkpt lat="52.418816" lon="16.878986"><ele>0</ele><time>2020-01-01T00:32:45Z</time></trkpt>
      <trkpt lat="52.418846" lon="16.878909"><ele>0</ele><time>2020-01-01T00:32:50Z</time></trkpt>
      <trkpt lat="52.418876" lon="16.878831"><ele>0</ele><time>2020-01-01T00:32:55Z</time></trkpt>
      <trkpt lat="52.418907" lon="16.878753"><ele>0</ele><time>2020-01-01T00:33:00Z</time></trkpt>
      <trkpt lat="52.418937" lon="16.878676"><ele>0</ele><time>2020-01-01T00:33:05Z</time></trkpt>
      <trkpt lat="52.418967" lon="16.878598"><ele>0</ele><time>2020-01-01T00:33:10Z</time></trkpt>
      <trkpt lat="52.418997" lon="16.878520"><ele>0</ele><time>2020-01-01T00:33:15Z</time></trkpt>
      <trkpt lat="52.419027" lon="16.878442"><ele>0</ele><time>2020-01-01T00:33:20Z</time></trkpt>
      <trkpt lat="52.419058" lon="16.878365"><ele>0</ele><time>2020-01-01T00:33:25Z</time></trkpt>
      <trkpt lat="52.419088" lon="16.878287"><ele>0</ele><time>2020-01-01T00:33:30Z</time></trkpt>
      <trkpt lat="52.419118" lon="16.878209"><ele>0</ele><time>2020-01-01T00:33:35Z</time></trkpt>
      <trkpt lat="52.419148" lon="16.878131"><ele>0</ele><time>2020-01-01T00:33:40Z</time></trkpt>
      <trkpt lat="52.419178" lon="16.878054"><ele>0</ele><time>2020-01-01T00:33:45Z</time></trkpt>
      <trkpt lat="52.419209" lon="16.877976"><ele>0</ele><time>2020-01-01T00:33:50Z</time></trkpt>
      <trkpt lat="52.419239" lon="16.877898"><ele>0</ele><time>2020-01-01T00:33:55Z</time></trkpt>
      <trkpt lat="52.419269" lon="16.877820"><ele>0</ele><time>2020-01-01T00:34:00Z</time></trkpt>
      <trkpt lat="52.419299" lon="16.877743"><ele>0</ele><time>2020-01-01T00:34:05Z</time></trkpt>
      <trkpt lat="52.419329" lon="16.877665"><ele>0</ele><time>2020-01-01T00:34:10Z</time></trkpt>
      <trkpt lat="52.419360" lon="16.877587"><ele>0</ele><time>2020-01-01T00:34:15Z</time></trkpt>
      <trkpt lat="52.419390" lon="16.877509"><ele>0</ele><time>2020-01-01T00:34:20Z</time></trkpt>
      <trkpt lat="52.419420" lon="16.877432"><ele>0</ele><time>2020-01-01T00:34:25Z</time></trkpt>
      <trkpt lat="52.419450" lon="16.877354"><ele>0</ele><time>2020-01-01T00:34:30Z</time></trkpt>
      <trkpt lat="52.419480" lon="16.877276"><ele>0</ele><time>2020-01-01T00:34:35Z</time></trkpt>
      <trkpt lat="52.419510" lon="16.877198"><ele>0</ele><time>2020-01-01T00:34:40Z</time></trkpt>
      <trkpt lat="52.419541" lon="16.877121"><ele>0</ele><time>2020-01-01T00:34:45Z</time></trkpt>
      <trkpt lat="52.419571" lon="16.877043"><ele>0</ele><time>2020-01-01T00:34:50Z</time></trkpt>
      <trkpt lat="52.419601" lon="16.876965"><ele>0</ele><time>2020-01-01T00:34:55Z</time></trkpt>
      <trkpt lat="52.419631" lon="16.876887"><ele>0</ele><time>2020-01-01T00:35:00Z</time></trkpt>
      <trkpt lat="52.419660" lon="16.876808"><ele>0</ele><time>2020-01-01T00:35:05Z</time></trkpt>
      <trkpt lat="52.419690" lon="16.876730"><ele>0</ele><time>2020-01-01T00:35:10Z</time></trkpt>
      <trkpt lat="52.419719" lon="16.876651"><ele>0</ele><time>2020-01-01T00:35:15Z</time></trkpt>
      <trkpt lat="52.419748" lon="16.876573"><ele>0</ele><time>2020-01-01T00:35:20Z</time></trkpt>
      <trkpt lat="52.419778" lon="16.876494"><ele>0</ele><time>2020-01-01T00:35:25Z</time></trkpt>
      <trkpt lat="52.419807" lon="16.876416"><ele>0</ele><time>2020-01-01T00:35:30Z</time></trkpt>
      <trkpt lat="52.419837" lon="16.876337"><ele>0</ele><time>2020-01-01T00:35:35Z</time></trkpt>
      <trkpt lat="52.419866" lon="16.876259"><ele>0</ele><time>2020-01-01T00:35:40Z</time></trkpt>
      <trkpt lat="52.419895" lon="16.876180"><ele>0</ele><time>2020-01-01T00:35:45Z</time></trkpt>
      <trkpt lat="52.419925" lon="16.876102"><ele>0</ele><time>2020-01-01T00:35:50Z</time></trkpt>
      <trkpt lat="52.419954" lon="16.876023"><ele>0</ele><time>2020-01-01T00:35:55Z</time></trkpt>
      <trkpt lat="52.419984" lon="16.875944"><ele>0</ele><time>2020-01-01T00:36:00Z</time></trkpt>
      <trkpt lat="52.420013" lon="16.875866"><ele>0</ele><time>2020-01-01T00:36:05Z</time></trkpt>
      <trkpt lat="52.420042" lon="16.875787"><ele>0</ele><time>2020-01-01T00:36:10Z</time></trkpt>
      <trkpt lat="52.420072" lon="16.875709"><ele>0</ele><time>2020-01-01T00:36:15Z</time></trkpt>
      <trkpt lat="52.420101" lon="16.875630"><ele>0</ele><time>2020-01-01T00:36:20Z</time></trkpt>
      <trkpt lat="52.420131" lon="16.875552"><ele>0</ele><time>2020-01-01T00:36:25Z</time></trkpt>
      <trkpt lat="52.420160" lon="16.875473"><ele>0</ele><time>2020-01-01T00:36:30Z</time></trkpt>
      <trkpt lat="52.420189" lon="16.875395"><ele>0</ele><time>2020-01-01T00:36:35Z</time></trkpt>
      <trkpt lat="52.420219" lon="16.875316"><ele>0</ele><time>2020-01-01T00:36:40Z</time></trkpt>
      <trkpt lat="52.420248" lon="16.875238"><ele>0</ele><time>2020-01-01T00:36:45Z</time></trkpt>
      <trkpt lat="52.420278" lon="16.875159"><ele>0</ele><time>2020-01-01T00:36:50Z</time></trkpt>
      <trkpt lat="52.420307" lon="16.875080"><ele>0</ele><time>2020-01-01T00:36:55Z</time></trkpt>
      <trkpt lat="52.420336" lon="16.875002"><ele>0</ele><time>2020-01-01T00:37:00Z</time></trkpt>
      <trkpt lat="52.420366" lon="16.874923"><ele>0</ele><time>2020-01-01T00:37:05Z</time></trkpt>
      <trkpt lat="52.420398" lon="16.874849"><ele>0</ele><time>2020-01-01T00:37:10Z</time></trkpt>
      <trkpt lat="52.420436" lon="16.874780"><ele>0</ele><time>2020-01-01T00:37:15Z</time></trkpt>
      <trkpt lat="52.420473" lon="16.874711"><ele>0</ele><time>2020-01-01T00:37:20Z</time></trkpt>
      <trkpt lat="52.420511" lon="16.874643"><ele>0</ele><time>2020-01-01T00:37:25Z</time></trkpt>
      <trkpt lat="52.420548" lon="16.874574"><ele>0</ele><time>2020-01-01T00:37:30Z</time></trkpt>
      <trkpt lat="52.420586" lon="16.874505"><ele>0</ele><time>2020-01-01T00:37:35Z</time></trkpt>
      <trkpt lat="52.420623" lon="16.874437"><ele>0</ele><time>2020-01-01T00:37:40Z</time></trkpt>
      <trkpt lat="52.420661" lon="16.874368"><ele>0</ele><time>2020-01-01T00:37:45Z</time></trkpt>
      <trkpt lat="52.420698" lon="16.874299"><ele>0</ele><time>2020-01-01T00:37:50Z</time></trkpt>
      <trkpt lat="52.420736" lon="16.874231"><ele>0</ele><time>2020-01-01T00:37:55Z</time></trkpt>
      <trkpt lat="52.420773" lon="16.874162"><ele>0</ele><time>2020-01-01T00:38:00Z</time></trkpt>
      <trkpt lat="52.420811" lon="16.874093"><ele>0</ele><time>2020-01-01T00:38:05Z</time></trkpt>
      <trkpt lat="52.420848" lon="16.874025"><ele>0</ele><time>2020-01-01T00:38:10Z</time></trkpt>
      <trkpt lat="52.420886" lon="16.873956"><ele>0</ele><time>2020-01-01T00:38:15Z</time></trkpt>
      <trkpt lat="52.420923" lon="16.873887"><ele>0</ele><time>2020-01-01T00:38:20Z</time></trkpt>
      <trkpt lat="52.420961" lon="16.873819"><ele>0</ele><time>2020-01-01T00:38:25Z</time></trkpt>
      <trkpt lat="52.420998" lon="16.873750"><ele>0</ele><time>2020-01-01T00:38:30Z</time></trkpt>
      <trkpt lat="52.421036" lon="16.873681"><ele>0</ele><time>2020-01-01T00:38:35Z</time></trkpt>
      <trkpt lat="52.421073" lon="16.873613"><ele>0</ele><time>2020-01-01T00:38:40Z</time></trkpt>
      <trkpt lat="52.421111" lon="16.873544"><ele>0</ele><time>2020-01-01T00:38:45Z</time></trkpt>
      <trkpt lat="52.421148" lon="16.873475"><ele>0</ele><time>2020-01-01T00:38:50Z</time></trkpt>
      <trkpt lat="52.421186" lon="16.873406"><ele>0</ele><time>2020-01-01T00:38:55Z</time></trkpt>
      <trkpt lat="52.421223" lon="16.873338"><ele>0</ele><time>2020-01-01T00:39:00Z</time></trkpt>
      <trkpt lat="52.421261" lon="16.873269"><ele>0</ele><time>2020-01-01T00:39:05Z</time></trkpt>
      <trkpt lat="52.421298" lon="16.873200"><ele>0</ele><time>2020-01-01T00:39:10Z</time></trkpt>
      <trkpt lat="52.421336" lon="16.873132"><ele>0</ele><time>2020-01-01T00:39:15Z</time></trkpt>
      <trkpt lat="52.421367" lon="16.873057"><ele>0</ele><time>2020-01-01T00:39:20Z</time></trkpt>
      <trkpt lat="52.421394" lon="16.872975"><ele>0</ele><time>2020-01-01T00:39:25Z</time></trkpt>
      <trkpt lat="52.421420" lon="16.872894"><ele>0</ele><time>2020-01-01T00:39:30Z</time></trkpt>
      <trkpt lat="52.421447" lon="16.872813"><ele>0</ele><time>2020-01-01T00:39:35Z</time></trkpt>
      <trkpt lat="52.421473" lon="16.872731"><ele>0</ele><time>2020-01-01T00:39:40Z</time></trkpt>
      <trkpt lat="52.421499" lon="16.872650"><ele>0</ele><time>2020-01-01T00:39:45Z</time></trkpt>
      <trkpt lat="52.421526" lon="16.872568"><ele>0</ele><time>2020-01-01T00:39:50Z</time></trkpt>
      <trkpt lat="52.421552" lon="16.872487"><ele>0</ele><time>2020-01-01T00:39:55Z</time></trkpt>
      <trkpt lat="52.421578" lon="16.872406"><ele>0</ele><time>2020-01-01T00:40:00Z</time></trkpt>
      <trkpt lat="52.421605" lon="16.872324"><ele>0</ele><time>2020-01-01T00:40:05Z</time></trkpt>
      <trkpt lat="52.421631" lon="16.872243"><ele>0</ele><time>2020-01-01T00:40:10Z</time></trkpt>
      <trkpt lat="52.421658" lon="16.872161"><ele>0</ele><time>2020-01-01T00:40:15Z</time></trkpt>
      <trkpt lat="52.421684" lon="16.872080"><ele>0</ele><time>2020-01-01T00:40:20Z</time></trkpt>
      <trkpt lat="52.421710" lon="16.871999"><ele>0</ele><time>2020-01-01T00:40:25Z</time></trkpt>
      <trkpt lat="52.421737" lon="16.871917"><ele>0</ele><time>2020-01-01T00:40:30Z</time></trkpt>
      <trkpt lat="52.421763" lon="16.871836"><ele>0</ele><time>2020-01-01T00:40:35Z</time></trkpt>
      <trkpt lat="52.421790" lon="16.871755"><ele>0</ele><time>2020-01-01T00:40:40Z</time></trkpt>
      <trkpt lat="52.421816" lon="16.871673"><ele>0</ele><time>2020-01-01T00:40:45Z</time></trkpt>
      <trkpt lat="52.421842" lon="16.871592"><ele>0</ele><time>2020-01-01T00:40:50Z</time></trkpt>
      <trkpt lat="52.421869" lon="16.871510"><ele>0</ele><time>2020-01-01T00:40:55Z</time></trkpt>
      <trkpt lat="52.421895" lon="16.871429"><ele>0</ele><time>2020-01-01T00:41:00Z</time></trkpt>
      <trkpt lat="52.421922" lon="16.871348"><ele>0</ele><time>2020-01-01T00:41:05Z</time></trkpt>
      <trkpt lat="52.421948" lon="16.871266"><ele>0</ele><time>2020-01-01T00:41:10Z</time></trkpt>
      <trkpt lat="52.421974" lon="16.871185"><ele>0</ele><time>2020-01-01T00:41:15Z</time></trkpt>
      <trkpt lat="52.422001" lon="16.871104"><ele>0</ele><time>2020-01-01T00:41:20Z</time></trkpt>
      <trkpt lat="52.422027" lon="16.871022"><ele>0</ele><time>2020-01-01T00:41:25Z</time></trkpt>
      <trkpt lat="52.422043" lon="16.870973"><ele>0</ele><time>2020-01-01T00:41:30Z</time></trkpt>
    </trkseg>
  </trk>
</gpx>
