<?xml version="1.0" encoding="UTF-8"?>
<gpx version="1.1" creator="Codex" xmlns="http://www.topografix.com/GPX/1/1" xmlns:xsi="http://www.w3.org/2001/XMLSchema-instance" xsi:schemaLocation="http://www.topografix.com/GPX/1/1 http://www.topografix.com/GPX/1/1/gpx.xsd">
  <metadata>
    <name>Dabrowskiego walk with 60m pauses</name>
    <desc>Route along active Dabrowskiego geofences: walk, pause within 60m (55m) of the next geofence center, then continue.</desc>
    <time>2026-02-25T09:00:00Z</time>
  </metadata>
  <trk>
    <name>Dabrowskiego walk stop within 60m</name>
    <trkseg>
      <trkpt lat="52.410668" lon="16.912540"><ele>0</ele><time>2026-02-25T09:00:00Z</time></trkpt>
      <trkpt lat="52.410693" lon="16.912449"><ele>0</ele><time>2026-02-25T09:00:05Z</time></trkpt>
      <trkpt lat="52.410718" lon="16.912358"><ele>0</ele><time>2026-02-25T09:00:10Z</time></trkpt>
      <trkpt lat="52.410742" lon="16.912267"><ele>0</ele><time>2026-02-25T09:00:15Z</time></trkpt>
      <trkpt lat="52.410767" lon="16.912176"><ele>0</ele><time>2026-02-25T09:00:20Z</time></trkpt>
      <trkpt lat="52.410792" lon="16.912085"><ele>0</ele><time>2026-02-25T09:00:25Z</time></trkpt>
      <trkpt lat="52.410817" lon="16.911995"><ele>0</ele><time>2026-02-25T09:00:30Z</time></trkpt>
      <trkpt lat="52.410841" lon="16.911904"><ele>0</ele><time>2026-02-25T09:00:35Z</time></trkpt>
      <trkpt lat="52.410866" lon="16.911813"><ele>0</ele><time>2026-02-25T09:00:40Z</time></trkpt>
      <trkpt lat="52.410891" lon="16.911722"><ele>0</ele><time>2026-02-25T09:00:45Z</time></trkpt>
      <trkpt lat="52.410916" lon="16.911631"><ele>0</ele><time>2026-02-25T09:00:50Z</time></trkpt>
      <trkpt lat="52.410940" lon="16.911540"><ele>0</ele><time>2026-02-25T09:00:55Z</time></trkpt>
      <trkpt lat="52.410965" lon="16.911449"><ele>0</ele><time>2026-02-25T09:01:00Z</time></trkpt>
      <trkpt lat="52.410990" lon="16.911358"><ele>0</ele><time>2026-02-25T09:01:05Z</time></trkpt>
      <trkpt lat="52.411015" lon="16.911267"><ele>0</ele><time>2026-02-25T09:01:10Z</time></trkpt>
      <trkpt lat="52.411040" lon="16.911176"><ele>0</ele><time>2026-02-25T09:01:15Z</time></trkpt>
      <trkpt lat="52.411064" lon="16.911085"><ele>0</ele><time>2026-02-25T09:01:20Z</time></trkpt>
      <trkpt lat="52.411064" lon="16.911085"><ele>0</ele><time>2026-02-25T09:01:25Z</time></trkpt>
      <trkpt lat="52.411064" lon="16.911085"><ele>0</ele><time>2026-02-25T09:01:30Z</time></trkpt>
      <trkpt lat="52.411064" lon="16.911085"><ele>0</ele><time>2026-02-25T09:01:35Z</time></trkpt>
      <trkpt lat="52.411064" lon="16.911085"><ele>0</ele><time>2026-02-25T09:01:40Z</time></trkpt>
      <trkpt lat="52.411064" lon="16.911085"><ele>0</ele><time>2026-02-25T09:01:45Z</time></trkpt>
      <trkpt lat="52.411064" lon="16.911085"><ele>0</ele><time>2026-02-25T09:01:50Z</time></trkpt>
      <trkpt lat="52.411090" lon="16.910993"><ele>0</ele><time>2026-02-25T09:01:55Z</time></trkpt>
      <trkpt lat="52.411115" lon="16.910900"><ele>0</ele><time>2026-02-25T09:02:00Z</time></trkpt>
      <trkpt lat="52.411140" lon="16.910808"><ele>0</ele><time>2026-02-25T09:02:05Z</time></trkpt>
      <trkpt lat="52.411165" lon="16.910715"><ele>0</ele><time>2026-02-25T09:02:10Z</time></trkpt>
      <trkpt lat="52.411190" lon="16.910623"><ele>0</ele><time>2026-02-25T09:02:15Z</time></trkpt>
      <trkpt lat="52.411216" lon="16.910530"><ele>0</ele><time>2026-02-25T09:02:20Z</time></trkpt>
      <trkpt lat="52.411241" lon="16.910438"><ele>0</ele><time>2026-02-25T09:02:25Z</time></trkpt>
      <trkpt lat="52.411266" lon="16.910345"><ele>0</ele><time>2026-02-25T09:02:30Z</time></trkpt>
      <trkpt lat="52.411287" lon="16.910250"><ele>0</ele><time>2026-02-25T09:02:35Z</time></trkpt>
      <trkpt lat="52.411308" lon="16.910156"><ele>0</ele><time>2026-02-25T09:02:40Z</time></trkpt>
      <trkpt lat="52.411328" lon="16.910061"><ele>0</ele><time>2026-02-25T09:02:45Z</time></trkpt>
      <trkpt lat="52.411349" lon="16.909967"><ele>0</ele><time>2026-02-25T09:02:50Z</time></trkpt>
      <trkpt lat="52.411370" lon="16.909872"><ele>0</ele><time>2026-02-25T09:02:55Z</time></trkpt>
      <trkpt lat="52.411391" lon="16.909778"><ele>0</ele><time>2026-02-25T09:03:00Z</time></trkpt>
      <trkpt lat="52.411411" lon="16.909683"><ele>0</ele><time>2026-02-25T09:03:05Z</time></trkpt>
      <trkpt lat="52.411432" lon="16.909589"><ele>0</ele><time>2026-02-25T09:03:10Z</time></trkpt>
      <trkpt lat="52.411453" lon="16.909494"><ele>0</ele><time>2026-02-25T09:03:15Z</time></trkpt>
      <trkpt lat="52.411474" lon="16.909400"><ele>0</ele><time>2026-02-25T09:03:20Z</time></trkpt>
      <trkpt lat="52.411494" lon="16.909305"><ele>0</ele><time>2026-02-25T09:03:25Z</time></trkpt>
      <trkpt lat="52.411515" lon="16.909211"><ele>0</ele><time>2026-02-25T09:03:30Z</time></trkpt>
      <trkpt lat="52.411536" lon="16.909116"><ele>0</ele><time>2026-02-25T09:03:35Z</time></trkpt>
      <trkpt lat="52.411557" lon="16.909022"><ele>0</ele><time>2026-02-25T09:03:40Z</time></trkpt>
      <trkpt lat="52.411578" lon="16.908927"><ele>0</ele><time>2026-02-25T09:03:45Z</time></trkpt>
      <trkpt lat="52.411598" lon="16.908833"><ele>0</ele><time>2026-02-25T09:03:50Z</time></trkpt>
      <trkpt lat="52.411598" lon="16.908833"><ele>0</ele><time>2026-02-25T09:03:55Z</time></trkpt>
      <trkpt lat="52.411598" lon="16.908833"><ele>0</ele><time>2026-02-25T09:04:00Z</time></trkpt>
      <trkpt lat="52.411598" lon="16.908833"><ele>0</ele><time>2026-02-25T09:04:05Z</time></trkpt>
      <trkpt lat="52.411598" lon="16.908833"><ele>0</ele><time>2026-02-25T09:04:10Z</time></trkpt>
      <trkpt lat="52.411598" lon="16.908833"><ele>0</ele><time>2026-02-25T09:04:15Z</time></trkpt>
      <trkpt lat="52.411598" lon="16.908833"><ele>0</ele><time>2026-02-25T09:04:20Z</time></trkpt>
      <trkpt lat="52.411619" lon="16.908738"><ele>0</ele><time>2026-02-25T09:04:25Z</time></trkpt>
      <trkpt lat="52.411640" lon="16.908642"><ele>0</ele><time>2026-02-25T09:04:30Z</time></trkpt>
      <trkpt lat="52.411661" lon="16.908547"><ele>0</ele><time>2026-02-25T09:04:35Z</time></trkpt>
      <trkpt lat="52.411682" lon="16.908451"><ele>0</ele><time>2026-02-25T09:04:40Z</time></trkpt>
      <trkpt lat="52.411703" lon="16.908356"><ele>0</ele><time>2026-02-25T09:04:45Z</time></trkpt>
      <trkpt lat="52.411724" lon="16.908261"><ele>0</ele><time>2026-02-25T09:04:50Z</time></trkpt>
      <trkpt lat="52.411745" lon="16.908165"><ele>0</ele><time>2026-02-25T09:04:55Z</time></trkpt>
      <trkpt lat="52.411766" lon="16.908070"><ele>0</ele><time>2026-02-25T09:05:00Z</time></trkpt>
      <trkpt lat="52.411787" lon="16.907975"><ele>0</ele><time>2026-02-25T09:05:05Z</time></trkpt>
      <trkpt lat="52.411807" lon="16.907881"><ele>0</ele><time>2026-02-25T09:05:10Z</time></trkpt>
      <trkpt lat="52.411828" lon="16.907786"><ele>0</ele><time>2026-02-25T09:05:15Z</time></trkpt>
      <trkpt lat="52.411848" lon="16.907692"><ele>0</ele><time>2026-02-25T09:05:20Z</time></trkpt>
      <trkpt lat="52.411869" lon="16.907597"><ele>0</ele><time>2026-02-25T09:05:25Z</time></trkpt>
      <trkpt lat="52.411889" lon="16.907503"><ele>0</ele><time>2026-02-25T09:05:30Z</time></trkpt>
      <trkpt lat="52.411910" lon="16.907408"><ele>0</ele><time>2026-02-25T09:05:35Z</time></trkpt>
      <trkpt lat="52.411930" lon="16.907314"><ele>0</ele><time>2026-02-25T09:05:40Z</time></trkpt>
      <trkpt lat="52.411951" lon="16.907219"><ele>0</ele><time>2026-02-25T09:05:45Z</time></trkpt>
      <trkpt lat="52.411971" lon="16.907124"><ele>0</ele><time>2026-02-25T09:05:50Z</time></trkpt>
      <trkpt lat="52.411992" lon="16.907030"><ele>0</ele><time>2026-02-25T09:05:55Z</time></trkpt>
      <trkpt lat="52.412012" lon="16.906935"><ele>0</ele><time>2026-02-25T09:06:00Z</time></trkpt>
      <trkpt lat="52.412033" lon="16.906841"><ele>0</ele><time>2026-02-25T09:06:05Z</time></trkpt>
      <trkpt lat="52.412053" lon="16.906746"><ele>0</ele><time>2026-02-25T09:06:10Z</time></trkpt>
      <trkpt lat="52.412074" lon="16.906652"><ele>0</ele><time>2026-02-25T09:06:15Z</time></trkpt>
      <trkpt lat="52.412094" lon="16.906557"><ele>0</ele><time>2026-02-25T09:06:20Z</time></trkpt>
      <trkpt lat="52.412094" lon="16.906557"><ele>0</ele><time>2026-02-25T09:06:25Z</time></trkpt>
      <trkpt lat="52.412094" lon="16.906557"><ele>0</ele><time>2026-02-25T09:06:30Z</time></trkpt>
      <trkpt lat="52.412094" lon="16.906557"><ele>0</ele><time>2026-02-25T09:06:35Z</time></trkpt>
      <trkpt lat="52.412094" lon="16.906557"><ele>0</ele><time>2026-02-25T09:06:40Z</time></trkpt>
      <trkpt lat="52.412094" lon="16.906557"><ele>0</ele><time>2026-02-25T09:06:45Z</time></trkpt>
      <trkpt lat="52.412094" lon="16.906557"><ele>0</ele><time>2026-02-25T09:06:50Z</time></trkpt>
      <trkpt lat="52.412115" lon="16.906462"><ele>0</ele><time>2026-02-25T09:06:55Z</time></trkpt>
      <trkpt lat="52.412136" lon="16.906366"><ele>0</ele><time>2026-02-25T09:07:00Z</time></trkpt>
      <trkpt lat="52.412156" lon="16.906271"><ele>0</ele><time>2026-02-25T09:07:05Z</time></trkpt>
      <trkpt lat="52.412177" lon="16.906175"><ele>0</ele><time>2026-02-25T09:07:10Z</time></trkpt>
      <trkpt lat="52.412198" lon="16.906080"><ele>0</ele><time>2026-02-25T09:07:15Z</time></trkpt>
      <trkpt lat="52.412219" lon="16.905984"><ele>0</ele><time>2026-02-25T09:07:20Z</time></trkpt>
      <trkpt lat="52.412239" lon="16.905889"><ele>0</ele><time>2026-02-25T09:07:25Z</time></trkpt>
      <trkpt lat="52.412260" lon="16.905793"><ele>0</ele><time>2026-02-25T09:07:30Z</time></trkpt>
      <trkpt lat="52.412281" lon="16.905698"><ele>0</ele><time>2026-02-25T09:07:35Z</time></trkpt>
      <trkpt lat="52.412301" lon="16.905604"><ele>0</ele><time>2026-02-25T09:07:40Z</time></trkpt>
      <trkpt lat="52.412322" lon="16.905509"><ele>0</ele><time>2026-02-25T09:07:45Z</time></trkpt>
      <trkpt lat="52.412342" lon="16.905415"><ele>0</ele><time>2026-02-25T09:07:50Z</time></trkpt>
      <trkpt lat="52.412363" lon="16.905320"><ele>0</ele><time>2026-02-25T09:07:55Z</time></trkpt>
      <trkpt lat="52.412384" lon="16.905226"><ele>0</ele><time>2026-02-25T09:08:00Z</time></trkpt>
      <trkpt lat="52.412404" lon="16.905131"><ele>0</ele><time>2026-02-25T09:08:05Z</time></trkpt>
      <trkpt lat="52.412425" lon="16.905037"><ele>0</ele><time>2026-02-25T09:08:10Z</time></trkpt>
      <trkpt lat="52.412445" lon="16.904942"><ele>0</ele><time>2026-02-25T09:08:15Z</time></trkpt>
      <trkpt lat="52.412466" lon="16.904848"><ele>0</ele><time>2026-02-25T09:08:20Z</time></trkpt>
      <trkpt lat="52.412487" lon="16.904753"><ele>0</ele><time>2026-02-25T09:08:25Z</time></trkpt>
      <trkpt lat="52.412507" lon="16.904659"><ele>0</ele><time>2026-02-25T09:08:30Z</time></trkpt>
      <trkpt lat="52.412528" lon="16.904564"><ele>0</ele><time>2026-02-25T09:08:35Z</time></trkpt>
      <trkpt lat="52.412548" lon="16.904470"><ele>0</ele><time>2026-02-25T09:08:40Z</time></trkpt>
      <trkpt lat="52.412569" lon="16.904375"><ele>0</ele><time>2026-02-25T09:08:45Z</time></trkpt>
      <trkpt lat="52.412590" lon="16.904281"><ele>0</ele><time>2026-02-25T09:08:50Z</time></trkpt>
      <trkpt lat="52.412590" lon="16.904281"><ele>0</ele><time>2026-02-25T09:08:55Z</time></trkpt>
      <trkpt lat="52.412590" lon="16.904281"><ele>0</ele><time>2026-02-25T09:09:00Z</time></trkpt>
      <trkpt lat="52.412590" lon="16.904281"><ele>0</ele><time>2026-02-25T09:09:05Z</time></trkpt>
      <trkpt lat="52.412590" lon="16.904281"><ele>0</ele><time>2026-02-25T09:09:10Z</time></trkpt>
      <trkpt lat="52.412590" lon="16.904281"><ele>0</ele><time>2026-02-25T09:09:15Z</time></trkpt>
      <trkpt lat="52.412590" lon="16.904281"><ele>0</ele><time>2026-02-25T09:09:20Z</time></trkpt>
      <trkpt lat="52.412610" lon="16.904185"><ele>0</ele><time>2026-02-25T09:09:25Z</time></trkpt>
      <trkpt lat="52.412631" lon="16.904090"><ele>0</ele><time>2026-02-25T09:09:30Z</time></trkpt>
      <trkpt lat="52.412652" lon="16.903994"><ele>0</ele><time>2026-02-25T09:09:35Z</time></trkpt>
      <trkpt lat="52.412673" lon="16.903899"><ele>0</ele><time>2026-02-25T09:09:40Z</time></trkpt>
      <trkpt lat="52.412694" lon="16.903803"><ele>0</ele><time>2026-02-25T09:09:45Z</time></trkpt>
      <trkpt lat="52.412714" lon="16.903708"><ele>0</ele><time>2026-02-25T09:09:50Z</time></trkpt>
      <trkpt lat="52.412735" lon="16.903612"><ele>0</ele><time>2026-02-25T09:09:55Z</time></trkpt>
      <trkpt lat="52.412756" lon="16.903517"><ele>0</ele><time>2026-02-25T09:10:00Z</time></trkpt>
      <trkpt lat="52.412777" lon="16.903423"><ele>0</ele><time>2026-02-25T09:10:05Z</time></trkpt>
      <trkpt lat="52.412797" lon="16.903328"><ele>0</ele><time>2026-02-25T09:10:10Z</time></trkpt>
      <trkpt lat="52.412818" lon="16.903234"><ele>0</ele><time>2026-02-25T09:10:15Z</time></trkpt>
      <trkpt lat="52.412839" lon="16.903139"><ele>0</ele><time>2026-02-25T09:10:20Z</time></trkpt>
      <trkpt lat="52.412860" lon="16.903045"><ele>0</ele><time>2026-02-25T09:10:25Z</time></trkpt>
      <trkpt lat="52.412880" lon="16.902950"><ele>0</ele><time>2026-02-25T09:10:30Z</time></trkpt>
      <trkpt lat="52.412901" lon="16.902856"><ele>0</ele><time>2026-02-25T09:10:35Z</time></trkpt>
      <trkpt lat="52.412922" lon="16.902761"><ele>0</ele><time>2026-02-25T09:10:40Z</time></trkpt>
      <trkpt lat="52.412943" lon="16.902667"><ele>0</ele><time>2026-02-25T09:10:45Z</time></trkpt>
      <trkpt lat="52.412963" lon="16.902572"><ele>0</ele><time>2026-02-25T09:10:50Z</time></trkpt>
      <trkpt lat="52.412984" lon="16.902478"><ele>0</ele><time>2026-02-25T09:10:55Z</time></trkpt>
      <trkpt lat="52.413005" lon="16.902383"><ele>0</ele><time>2026-02-25T09:11:00Z</time></trkpt>
      <trkpt lat="52.413025" lon="16.902289"><ele>0</ele><time>2026-02-25T09:11:05Z</time></trkpt>
      <trkpt lat="52.413046" lon="16.902194"><ele>0</ele><time>2026-02-25T09:11:10Z</time></trkpt>
      <trkpt lat="52.413067" lon="16.902100"><ele>0</ele><time>2026-02-25T09:11:15Z</time></trkpt>
      <trkpt lat="52.413088" lon="16.902005"><ele>0</ele><time>2026-02-25T09:11:20Z</time></trkpt>
      <trkpt lat="52.413088" lon="16.902005"><ele>0</ele><time>2026-02-25T09:11:25Z</time></trkpt>
      <trkpt lat="52.413088" lon="16.902005"><ele>0</ele><time>2026-02-25T09:11:30Z</time></trkpt>
      <trkpt lat="52.413088" lon="16.902005"><ele>0</ele><time>2026-02-25T09:11:35Z</time></trkpt>
      <trkpt lat="52.413088" lon="16.902005"><ele>0</ele><time>2026-02-25T09:11:40Z</time></trkpt>
      <trkpt lat="52.413088" lon="16.902005"><ele>0</ele><time>2026-02-25T09:11:45Z</time></trkpt>
      <trkpt lat="52.413088" lon="16.902005"><ele>0</ele><time>2026-02-25T09:11:50Z</time></trkpt>
      <trkpt lat="52.413109" lon="16.901910"><ele>0</ele><time>2026-02-25T09:11:55Z</time></trkpt>
      <trkpt lat="52.413129" lon="16.901814"><ele>0</ele><time>2026-02-25T09:12:00Z</time></trkpt>
      <trkpt lat="52.413150" lon="16.901719"><ele>0</ele><time>2026-02-25T09:12:05Z</time></trkpt>
      <trkpt lat="52.413171" lon="16.901624"><ele>0</ele><time>2026-02-25T09:12:10Z</time></trkpt>
      <trkpt lat="52.413192" lon="16.901528"><ele>0</ele><time>2026-02-25T09:12:15Z</time></trkpt>
      <trkpt lat="52.413213" lon="16.901433"><ele>0</ele><time>2026-02-25T09:12:20Z</time></trkpt>
      <trkpt lat="52.413234" lon="16.901337"><ele>0</ele><time>2026-02-25T09:12:25Z</time></trkpt>
      <trkpt lat="52.413255" lon="16.901242"><ele>0</ele><time>2026-02-25T09:12:30Z</time></trkpt>
      <trkpt lat="52.413255" lon="16.901242"><ele>0</ele><time>2026-02-25T09:12:35Z</time></trkpt>
      <trkpt lat="52.413255" lon="16.901242"><ele>0</ele><time>2026-02-25T09:12:40Z</time></trkpt>
      <trkpt lat="52.413255" lon="16.901242"><ele>0</ele><time>2026-02-25T09:12:45Z</time></trkpt>
      <trkpt lat="52.413255" lon="16.901242"><ele>0</ele><time>2026-02-25T09:12:50Z</time></trkpt>
      <trkpt lat="52.413255" lon="16.901242"><ele>0</ele><time>2026-02-25T09:12:55Z</time></trkpt>
      <trkpt lat="52.413255" lon="16.901242"><ele>0</ele><time>2026-02-25T09:13:00Z</time></trkpt>
    </trkseg>
  </trk>
</gpx>
